{"type": "FeatureCollection", "features": [ {"type": "Feature", "properties": {"norad_id": 33779, "name": "COSMOS 2251 DEB", "group": "cosmos-2251-debris", "lat": -17.09470664662138, "lon": 11.922058342304256, "alt_km": 653.6787487796328, "timestamp": "2025-12-04T09:47:37.912195+00:00", "meta": {"OBJECT_NAME": "COSMOS 2251 DEB", "OBJECT_ID": "1993-036U", "EPOCH": "2025-12-04T01:17:57.804864", "MEAN_MOTION": 14.70181178, "ECCENTRICITY": 0.0017681, "INCLINATION": 74.0442, "RA_OF_ASC_NODE": 187.56, "ARG_OF_PERICENTER": 222.6406, "MEAN_ANOMALY": 262.6385, "EPHEMERIS_TYPE": 0, "CLASSIFICATION_TYPE": "U", "NORAD_CAT_ID": 33779, "ELEMENT_SET_NO": 999, "REV_AT_EPOCH": 88400, "BSTAR": 0.0026535, "MEAN_MOTION_DOT": 0.00016025, "MEAN_MOTION_DDOT": 0}, "tle": {"line1": "1 33779U 93036U   25338.05414126  .00016025  00000+0  26535-2 0  9990", "line2": "2 33779  74.0442 187.5600 0017681 222.6406 262.6385 14.70181178884004"}}, "geometry": {"type": "Point", "coordinates": [11.922058342304256, -17.09470664662138]}}, {"type": "Feature", "properties": {"norad_id": 33782, "name": "COSMOS 2251 DEB", "group": "cosmos-2251-debris", "lat": 43.46555821568266, "lon": 97.20911766072662, "alt_km": 763.4268449774218, "timestamp": "2025-12-04T09:47:37.912205+00:00", "meta": {"OBJECT_NAME": "COSMOS 2251 DEB", "OBJECT_ID": "1993-036X", "EPOCH": "2025-12-03T21:47:33.276192", "MEAN_MOTION": 14.40407521, "ECCENTRICITY": 0.002036, "INCLINATION": 74.0326, "RA_OF_ASC_NODE": 293.8797, "ARG_OF_PERICENTER": 0.2197, "MEAN_ANOMALY": 61.8841, "EPHEMERIS_TYPE": 0, "CLASSIFICATION_TYPE": "U", "NORAD_CAT_ID": 33782, "ELEMENT_SET_NO": 999, "REV_AT_EPOCH": 87999, "BSTAR": 0.00079786, "MEAN_MOTION_DOT": 2.514e-05, "MEAN_MOTION_DDOT": 0}, "tle": {"line1": "1 33782U 93036X   25337.90802403  .00002514  00000+0  79786-3 0  9991", "line2": "2 33782  74.0326 293.8797 0020360   0.2197  61.8841 14.40407521879990"}}, "geometry": {"type": "Point", "coordinates": [97.20911766072662, 43.46555821568266]}}, {"type": "Feature", "properties": {"norad_id": 33785, "name": "COSMOS 2251 DEB", "group": "cosmos-2251-debris", "lat": 9.365801877688055, "lon": -106.4784403265012, "alt_km": 675.2157532596393, "timestamp": "2025-12-04T09:47:37.912216+00:00", "meta": {"OBJECT_NAME": "COSMOS 2251 DEB", "OBJECT_ID": "1993-036AA", "EPOCH": "2025-12-03T17:13:56.049312", "MEAN_MOTION": 14.70129065, "ECCENTRICITY": 0.00213799, "INCLINATION": 73.8677, "RA_OF_ASC_NODE": 77.6092, "ARG_OF_PERICENTER": 19.4778, "MEAN_ANOMALY": 99.845, "EPHEMERIS_TYPE": 0, "CLASSIFICATION_TYPE": "U", "NORAD_CAT_ID": 33785, "ELEMENT_SET_NO": 999, "REV_AT_EPOCH": 88374, "BSTAR": 0.0031205414, "MEAN_MOTION_DOT": 0.00018857, "MEAN_MOTION_DDOT": 0}, "tle": {"line1": "1 33785U 93036AA  25337.71800983  .00018857  00000+0  31205-2 0  9994", "line2": "2 33785  73.8677  77.6092 0021379  19.4778  99.8450 14.70129065883745"}}, "geometry": {"type": "Point", "coordinates": [-106.4784403265012, 9.365801877688055]}}, {"type": "Feature", "properties": {"norad_id": 33789, "name": "COSMOS 2251 DEB", "group": "cosmos-2251-debris", "lat": -73.47083674061707, "lon": 27.227282705527948, "alt_km": 837.3104050568945, "timestamp": "2025-12-04T09:47:37.912226+00:00", "meta": {"OBJECT_NAME": "COSMOS 2251 DEB", "OBJECT_ID": "1993-036AE", "EPOCH": "2025-12-04T02:26:01.956192", "MEAN_MOTION": 13.88764069, "ECCENTRICITY": 0.0240468, "INCLINATION": 74.0636, "RA_OF_ASC_NODE": 102.066, "ARG_OF_PERICENTER": 219.5889, "MEAN_ANOMALY": 319.9835, "EPHEMERIS_TYPE": 0, "CLASSIFICATION_TYPE": "U", "NORAD_CAT_ID": 33789, "ELEMENT_SET_NO": 999, "REV_AT_EPOCH": 84975, "BSTAR": 0.0013316, "MEAN_MOTION_DOT": 2e-05, "MEAN_MOTION_DDOT": 0}, "tle": {"line1": "1 33789U 93036AE  25338.10141153  .00002000  00000+0  13316-2 0  9995", "line2": "2 33789  74.0636 102.0660 0240468 219.5889 319.9835 13.88764069849752"}}, "geometry": {"type": "Point", "coordinates": [27.227282705527948, -73.47083674061707]}}, {"type": "Feature", "properties": {"norad_id": 33791, "name": "COSMOS 2251 DEB", "group": "cosmos-2251-debris", "lat": -39.342571359510465, "lon": 39.48103899320742, "alt_km": 746.1643646156408, "timestamp": "2025-12-04T09:47:37.912236+00:00", "meta": {"OBJECT_NAME": "COSMOS 2251 DEB", "OBJECT_ID": "1993-036AG", "EPOCH": "2025-12-03T16:15:17.276256", "MEAN_MOTION": 14.43048971, "ECCENTRICITY": 0.00305777, "INCLINATION": 74.176, "RA_OF_ASC_NODE": 54.2692, "ARG_OF_PERICENTER": 252.9134, "MEAN_ANOMALY": 230.722, "EPHEMERIS_TYPE": 0, "CLASSIFICATION_TYPE": "U", "NORAD_CAT_ID": 33791, "ELEMENT_SET_NO": 999, "REV_AT_EPOCH": 87921, "BSTAR": 0.0010226221, "MEAN_MOTION_DOT": 3.423e-05, "MEAN_MOTION_DDOT": 0}, "tle": {"line1": "1 33791U 93036AG  25337.67728329  .00003423  00000+0  10226-2 0  9992", "line2": "2 33791  74.1760  54.2692 0030577 252.9134 230.7220 14.43048971879210"}}, "geometry": {"type": "Point", "coordinates": [39.48103899320742, -39.342571359510465]}}, {"type": "Feature", "properties": {"norad_id": 33792, "name": "COSMOS 2251 DEB", "group": "cosmos-2251-debris", "lat": 38.18768457378618, "lon": 11.77929298385338, "alt_km": 792.7182924017206, "timestamp": "2025-12-04T09:47:37.912246+00:00", "meta": {"OBJECT_NAME": "COSMOS 2251 DEB", "OBJECT_ID": "1993-036AH", "EPOCH": "2025-12-03T12:44:04.482816", "MEAN_MOTION": 13.45802489, "ECCENTRICITY": 0.04268158, "INCLINATION": 73.9011, "RA_OF_ASC_NODE": 0.0505, "ARG_OF_PERICENTER": 66.4261, "MEAN_ANOMALY": 46.0061, "EPHEMERIS_TYPE": 0, "CLASSIFICATION_TYPE": "U", "NORAD_CAT_ID": 33792, "ELEMENT_SET_NO": 999, "REV_AT_EPOCH": 82318, "BSTAR": 0.00085012771, "MEAN_MOTION_DOT": 8.61e-06, "MEAN_MOTION_DDOT": 0}, "tle": {"line1": "1 33792U 93036AH  25337.53060744  .00000861  00000+0  85013-3 0  9998", "line2": "2 33792  73.9011   0.0505 0426815  66.4261  46.0061 13.45802489823181"}}, "geometry": {"type": "Point", "coordinates": [11.77929298385338, 38.18768457378618]}}, {"type": "Feature", "properties": {"norad_id": 33793, "name": "COSMOS 2251 DEB", "group": "cosmos-2251-debris", "lat": -53.601540337025654, "lon": 142.12264348266024, "alt_km": 751.5632407183602, "timestamp": "2025-12-04T09:47:37.912256+00:00", "meta": {"OBJECT_NAME": "COSMOS 2251 DEB", "OBJECT_ID": "1993-036AJ", "EPOCH": "2025-12-03T14:10:50.282400", "MEAN_MOTION": 14.27674189, "ECCENTRICITY": 0.00781799, "INCLINATION": 73.9798, "RA_OF_ASC_NODE": 166.5445, "ARG_OF_PERICENTER": 318.4384, "MEAN_ANOMALY": 106.4332, "EPHEMERIS_TYPE": 0, "CLASSIFICATION_TYPE": "U", "NORAD_CAT_ID": 33793, "ELEMENT_SET_NO": 999, "REV_AT_EPOCH": 87076, "BSTAR": 0.00085987956, "MEAN_MOTION_DOT": 2.164e-05, "MEAN_MOTION_DDOT": 0}, "tle": {"line1": "1 33793U 93036AJ  25337.59085975  .00002164  00000+0  85988-3 0  9997", "line2": "2 33793  73.9798 166.5445 0078179 318.4384 106.4332 14.27674189870760"}}, "geometry": {"type": "Point", "coordinates": [142.12264348266024, -53.601540337025654]}}, {"type": "Feature", "properties": {"norad_id": 33795, "name": "COSMOS 2251 DEB", "group": "cosmos-2251-debris", "lat": 73.278421623118, "lon": 166.2002730572448, "alt_km": 546.0548441343171, "timestamp": "2025-12-04T09:47:37.912267+00:00", "meta": {"OBJECT_NAME": "COSMOS 2251 DEB", "OBJECT_ID": "1993-036AL", "EPOCH": "2025-12-03T18:00:39.769056", "MEAN_MOTION": 15.04922363, "ECCENTRICITY": 0.00331668, "INCLINATION": 74.0319, "RA_OF_ASC_NODE": 95.1609, "ARG_OF_PERICENTER": 181.2896, "MEAN_ANOMALY": 302.7879, "EPHEMERIS_TYPE": 0, "CLASSIFICATION_TYPE": "U", "NORAD_CAT_ID": 33795, "ELEMENT_SET_NO": 999, "REV_AT_EPOCH": 89886, "BSTAR": 0.0023836999, "MEAN_MOTION_DOT": 0.00034302, "MEAN_MOTION_DDOT": 0}, "tle": {"line1": "1 33795U 93036AL  25337.75046029  .00034302  00000+0  23837-2 0  9997", "line2": "2 33795  74.0319  95.1609 0033166 181.2896 302.7879 15.04922363898867"}}, "geometry": {"type": "Point", "coordinates": [166.2002730572448, 73.278421623118]}}, {"type": "Feature", "properties": {"norad_id": 33797, "name": "COSMOS 2251 DEB", "group": "cosmos-2251-debris", "lat": -62.58942213692684, "lon": -95.73442480562836, "alt_km": 719.009747867115, "timestamp": "2025-12-04T09:47:37.912279+00:00", "meta": {"OBJECT_NAME": "COSMOS 2251 DEB", "OBJECT_ID": "1993-036AN", "EPOCH": "2025-12-03T21:41:59.076672", "MEAN_MOTION": 14.57788639, "ECCENTRICITY": 0.00612133, "INCLINATION": 74.0486, "RA_OF_ASC_NODE": 51.7505, "ARG_OF_PERICENTER": 142.2239, "MEAN_ANOMALY": 340.9516, "EPHEMERIS_TYPE": 0, "CLASSIFICATION_TYPE": "U", "NORAD_CAT_ID": 33797, "ELEMENT_SET_NO": 999, "REV_AT_EPOCH": 88856, "BSTAR": 0.00098484045, "MEAN_MOTION_DOT": 4.595e-05, "MEAN_MOTION_DDOT": 0}, "tle": {"line1": "1 33797U 93036AN  25337.90415598  .00004595  00000+0  98484-3 0  9999", "line2": "2 33797  74.0486  51.7505 0061213 142.2239 340.9516 14.57788639888560"}}, "geometry": {"type": "Point", "coordinates": [-95.73442480562836, -62.58942213692684]}}, {"type": "Feature", "properties": {"norad_id": 33798, "name": "COSMOS 2251 DEB", "group": "cosmos-2251-debris", "lat": 18.09411505193112, "lon": -33.94539274601076, "alt_km": 769.1249736847994, "timestamp": "2025-12-04T09:47:37.912302+00:00", "meta": {"OBJECT_NAME": "COSMOS 2251 DEB", "OBJECT_ID": "1993-036AP", "EPOCH": "2025-12-03T18:09:17.460576", "MEAN_MOTION": 14.44596671, "ECCENTRICITY": 0.00924837, "INCLINATION": 74.0276, "RA_OF_ASC_NODE": 152.6376, "ARG_OF_PERICENTER": 275.9418, "MEAN_ANOMALY": 98.6399, "EPHEMERIS_TYPE": 0, "CLASSIFICATION_TYPE": "U", "NORAD_CAT_ID": 33798, "ELEMENT_SET_NO": 999, "REV_AT_EPOCH": 88464, "BSTAR": 0.00023290947, "MEAN_MOTION_DOT": 8.19e-06, "MEAN_MOTION_DDOT": 0}, "tle": {"line1": "1 33798U 93036AP  25337.75645209  .00000819  00000+0  23291-3 0  9996", "line2": "2 33798  74.0276 152.6376 0092483 275.9418  98.6399 14.44596671884641"}}, "geometry": {"type": "Point", "coordinates": [-33.94539274601076, 18.09411505193112]}}]}